OBJECT_NAME,OBJECT_ID,EPOCH,MEAN_MOTION,ECCENTRICITY,INCLINATION,RA_OF_ASC_NODE,ARG_OF_PERICENTER,MEAN_ANOMALY,EPHEMERIS_TYPE,CLASSIFICATION_TYPE,NORAD_CAT_ID,ELEMENT_SET_NO,REV_AT_EPOCH,BSTAR,MEAN_MOTION_DOT,MEAN_MOTION_DDOT
ONEWEB-0309,2021-075W,2026-07-19T10:30:28.499040,13.17649388,.0002343,87.9153,359.4469,89.6517,270.4884,0,U,49095,999,23782,-.17826666E-3,-.56E-6,0
ONEWEB-0310,2021-075X,2026-07-19T09:47:04.848000,13.12442911,.00018859,87.8969,344.2726,97.9286,262.2057,0,U,49096,999,23941,.37079964E-3,.146E-5,0
ONEWEB-0311,2021-075Y,2026-07-19T10:40:12.534528,13.17648822,.00016328,87.9150,359.4457,80.3783,279.7533,0,U,49097,999,23787,.19690989E-3,.89E-6,0
ONEWEB-0312,2021-075Z,2026-07-19T11:02:05.171712,13.17648609,.00019612,87.9147,359.4528,84.8806,275.2550,0,U,49098,999,23785,.60782226E-4,.36E-6,0
ONEWEB-0313,2021-075AA,2026-07-19T11:09:09.505440,13.17648761,.00018176,87.9149,359.4565,89.9002,270.2338,0,U,49099,999,23784,-.3614022E-3,-.127E-5,0
ONEWEB-0314,2021-075AB,2026-07-19T10:20:45.109824,13.17649226,.00020123,87.9159,359.4400,83.8892,276.2469,0,U,49100,999,23781,-.40666444E-3,-.145E-5,0
ONEWEB-0315,2021-075AC,2026-07-19T09:08:03.630048,13.12443305,.00015389,87.8976,344.2451,88.6123,271.5182,0,U,49101,999,23939,.98608599E-3,.367E-5,0
ONEWEB-0316,2021-075AD,2026-07-19T15:13:05.539296,13.18686599,.00019815,87.9195,329.0042,99.5937,260.5419,0,U,49102,999,24148,.1559752E-3,.74E-6,0
ONEWEB-0317,2021-075AE,2026-07-19T11:02:43.368288,13.12443488,.00025318,87.8970,344.2527,104.7106,255.4303,0,U,49103,999,23942,.12037517E-2,.446E-5,0
ONEWEB-0318,2021-075AF,2026-07-19T09:40:15.095136,13.18686642,.00017792,87.9198,329.0524,94.4359,265.6977,0,U,49104,999,24141,.35447434E-4,.27E-6,0
ONEWEB-0319,2021-075AG,2026-07-19T10:42:38.253312,13.17648365,.00014019,87.9155,359.4496,84.7522,275.3770,0,U,49105,999,23785,.84793519E-4,.46E-6,0
ONEWEB-0323,2021-075AH,2026-07-19T10:35:52.636416,13.12444063,.0001554,87.8976,344.2384,81.6914,278.4391,0,U,49106,999,23878,-.3899452E-3,-.128E-5,0
ONEWEB-0329,2021-075AJ,2026-07-19T10:54:46.427328,13.17648679,.00019361,87.9153,359.4495,88.9611,271.1743,0,U,49107,999,23783,.15994947E-3,.75E-6,0
ONEWEB-0330,2021-075AK,2026-07-19T10:59:49.858080,13.17647446,.00019899,87.9154,359.4604,88.8763,271.2597,0,U,49108,999,23787,.9559572E-4,.5E-6,0
ONEWEB-0292,2021-083A,2026-07-19T12:59:05.430912,13.13470048,.00017941,87.8982,313.7997,98.6051,261.5281,0,U,49186,999,23517,.89361075E-3,.339E-5,0
ONEWEB-0303,2021-083B,2026-07-19T09:35:23.477856,13.18684119,.00017761,87.9197,329.0515,95.1384,264.9951,0,U,49187,999,23422,.10083365E-3,.53E-6,0
ONEWEB-0306,2021-083C,2026-07-19T09:20:50.113824,13.18684551,.00021058,87.9201,329.0423,100.3525,259.7844,0,U,49188,999,23426,-.9943426E-4,-.26E-6,0
ONEWEB-0307,2021-083D,2026-07-19T14:40:15.093984,13.13468648,.00018956,87.8980,313.7835,96.6428,263.4916,0,U,49189,999,23518,.10131936E-2,.383E-5,0
ONEWEB-0320,2021-083E,2026-07-19T09:49:56.713152,13.18685605,.0001969,87.9190,329.0531,99.6916,260.4439,0,U,49190,999,23422,-.40955215E-3,-.149E-5,0
ONEWEB-0321,2021-083F,2026-07-19T11:21:44.512704,13.20772043,.00021619,87.9176,268.0009,103.1178,257.0197,0,U,49191,999,24109,-.16881712E-3,-.56E-6,0
ONEWEB-0322,2021-083G,2026-07-19T07:15:23.148000,13.13470818,.00021162,87.8980,313.8444,111.8175,248.3180,0,U,49192,999,23513,.99702728E-3,.377E-5,0
ONEWEB-0324,2021-083H,2026-07-19T14:38:54.396384,13.18686961,.00020677,87.9205,329.0042,95.4148,264.7220,0,U,49193,999,23427,.15083336E-3,.72E-6,0
ONEWEB-0325,2021-083J,2026-07-19T14:43:44.820480,13.18687058,.00018344,87.9193,329.0087,100.5293,259.6046,0,U,49194,999,23428,-.50514532E-4,-.7E-7,0
ONEWEB-0326,2021-083K,2026-07-19T09:38:02.525568,13.18686269,.0001637,87.9201,329.0513,95.0423,265.0896,0,U,49195,999,23424,.11044491E-3,.56E-6,0
ONEWEB-0327,2021-083L,2026-07-19T15:05:25.586304,13.18685945,.00014827,87.9192,329.0078,98.6383,261.4917,0,U,49196,999,23429,-.3988779E-5,.11E-6,0
ONEWEB-0328,2021-083M,2026-07-19T08:50:27.233664,13.13470439,.00020425,87.8989,313.8078,96.6996,263.4365,0,U,49197,999,23512,.37936993E-3,.151E-5,0
ONEWEB-0331,2021-083N,2026-07-19T09:28:07.003200,13.18685618,.00016726,87.9201,329.0468,90.4233,269.7091,0,U,49198,999,23425,.38286152E-3,.164E-5,0
ONEWEB-0333,2021-083P,2026-07-19T14:12:13.417344,13.13471266,.00019019,87.8979,313.7868,101.2807,258.8536,0,U,49199,999,23516,.133249E-3,.61E-6,0
ONEWEB-0334,2021-083Q,2026-07-19T11:42:20.672928,13.20769607,.00025588,87.9177,268.0082,113.5824,246.5578,0,U,49200,999,24105,-.14181828E-3,-.45E-6,0
ONEWEB-0335,2021-083R,2026-07-19T14:04:54.598656,13.13469957,.00018271,87.8979,313.7851,96.1689,263.9648,0,U,49201,999,23517,-.21954684E-3,-.67E-6,0
