ONEWEB-0309             
1 49095U 21075W   26200.43782985 -.00000056  00000+0 -17827-3 0  9998
2 49095  87.9153 359.4469 0002343  89.6517 270.4884 13.17649388237825
ONEWEB-0310             
1 49096U 21075X   26200.40769500  .00000146  00000+0  37080-3 0  9995
2 49096  87.8969 344.2726 0001885  97.9286 262.2057 13.12442911239419
ONEWEB-0311             
1 49097U 21075Y   26200.44458952  .00000089  00000+0  19691-3 0  9990
2 49097  87.9150 359.4457 0001632  80.3783 279.7533 13.17648822237874
ONEWEB-0312             
1 49098U 21075Z   26200.45978208  .00000036  00000+0  60782-4 0  9993
2 49098  87.9147 359.4528 0001961  84.8806 275.2550 13.17648609237851
ONEWEB-0313             
1 49099U 21075AA  26200.46469335 -.00000127  00000+0 -36140-3 0  9994
2 49099  87.9149 359.4565 0001817  89.9002 270.2338 13.17648761237846
ONEWEB-0314             
1 49100U 21075AB  26200.43107766 -.00000145  00000+0 -40666-3 0  9999
2 49100  87.9159 359.4400 0002012  83.8892 276.2469 13.17649226237811
ONEWEB-0315             
1 49101U 21075AC  26200.38059757  .00000367  00000+0  98609-3 0  9994
2 49101  87.8976 344.2451 0001538  88.6123 271.5182 13.12443305239398
ONEWEB-0316             
1 49102U 21075AD  26200.63409189  .00000074  00000+0  15598-3 0  9992
2 49102  87.9195 329.0042 0001981  99.5937 260.5419 13.18686599241480
ONEWEB-0317             
1 49103U 21075AE  26200.46022417  .00000446  00000+0  12038-2 0  9997
2 49103  87.8970 344.2527 0002531 104.7106 255.4303 13.12443488239425
ONEWEB-0318             
1 49104U 21075AF  26200.40295249  .00000027  00000+0  35447-4 0  9993
2 49104  87.9198 329.0524 0001779  94.4359 265.6977 13.18686642241414
ONEWEB-0319             
1 49105U 21075AG  26200.44627608  .00000046  00000+0  84794-4 0  9996
2 49105  87.9155 359.4496 0001401  84.7522 275.3770 13.17648365237850
ONEWEB-0323             
1 49106U 21075AH  26200.44158144 -.00000128  00000+0 -38995-3 0  9995
2 49106  87.8976 344.2384 0001554  81.6914 278.4391 13.12444063238789
ONEWEB-0329             
1 49107U 21075AJ  26200.45470402  .00000075  00000+0  15995-3 0  9995
2 49107  87.9153 359.4495 0001936  88.9611 271.1743 13.17648679237837
ONEWEB-0330             
1 49108U 21075AK  26200.45821595  .00000050  00000+0  95596-4 0  9998
2 49108  87.9154 359.4604 0001989  88.8763 271.2597 13.17647446237879
ONEWEB-0292             
1 49186U 21083A   26200.54103508  .00000339  00000+0  89361-3 0  9992
2 49186  87.8982 313.7997 0001794  98.6051 261.5281 13.13470048235175
ONEWEB-0303             
1 49187U 21083B   26200.39957729  .00000053  00000+0  10083-3 0  9996
2 49187  87.9197 329.0515 0001776  95.1384 264.9951 13.18684119234229
ONEWEB-0306             
1 49188U 21083C   26200.38946891 -.00000026  00000+0 -99434-4 0  9994
2 49188  87.9201 329.0423 0002105 100.3525 259.7844 13.18684551234264
ONEWEB-0307             
1 49189U 21083D   26200.61128581  .00000383  00000+0  10132-2 0  9999
2 49189  87.8980 313.7835 0001895  96.6428 263.4916 13.13468648235185
ONEWEB-0320             
1 49190U 21083E   26200.40968418 -.00000149  00000+0 -40955-3 0  9998
2 49190  87.9190 329.0531 0001969  99.6916 260.4439 13.18685605234221
ONEWEB-0321             
1 49191U 21083F   26200.47343186 -.00000056  00000+0 -16882-3 0  9994
2 49191  87.9176 268.0009 0002161 103.1178 257.0197 13.20772043241096
ONEWEB-0322             
1 49192U 21083G   26200.30235125  .00000377  00000+0  99703-3 0  9997
2 49192  87.8980 313.8444 0002116 111.8175 248.3180 13.13470818235134
ONEWEB-0324             
1 49193U 21083H   26200.61035181  .00000072  00000+0  15083-3 0  9993
2 49193  87.9205 329.0042 0002067  95.4148 264.7220 13.18686961234275
ONEWEB-0325             
1 49194U 21083J   26200.61371320 -.00000007  00000+0 -50515-4 0  9992
2 49194  87.9193 329.0087 0001834 100.5293 259.6046 13.18687058234289
ONEWEB-0326             
1 49195U 21083K   26200.40141812  .00000056  00000+0  11044-3 0  9996
2 49195  87.9201 329.0513 0001637  95.0423 265.0896 13.18686269234241
ONEWEB-0327             
1 49196U 21083L   26200.62876836  .00000011  00000+0 -39888-5 0  9992
2 49196  87.9192 329.0078 0001482  98.6383 261.4917 13.18685945234298
ONEWEB-0328             
1 49197U 21083M   26200.36837076  .00000151  00000+0  37937-3 0  9992
2 49197  87.8989 313.8078 0002042  96.6996 263.4365 13.13470439235121
ONEWEB-0331             
1 49198U 21083N   26200.39452550  .00000164  00000+0  38286-3 0  9998
2 49198  87.9201 329.0468 0001672  90.4233 269.7091 13.18685618234256
ONEWEB-0333             
1 49199U 21083P   26200.59182196  .00000061  00000+0  13325-3 0  9990
2 49199  87.8979 313.7868 0001901 101.2807 258.8536 13.13471266235166
ONEWEB-0334             
1 49200U 21083Q   26200.48773927 -.00000045  00000+0 -14182-3 0  9995
2 49200  87.9177 268.0082 0002558 113.5824 246.5578 13.20769607241056
ONEWEB-0335             
1 49201U 21083R   26200.58674304 -.00000067  00000+0 -21955-3 0  9996
2 49201  87.8979 313.7851 0001827  96.1689 263.9648 13.13469957235175
